{"type":"FeatureCollection","features":[{"type":"Feature","properties":{"adm3_name":"Nam Lao","adm3_name1":"น้ำเลา","adm3_name2":null,"adm3_name3":null,"adm3_pcode":"TH540205","adm2_name":"Rong Kwang","adm2_name1":"ร้องกวาง","adm2_name2":null,"adm2_name3":null,"adm2_pcode":"TH5402","adm1_name":"Phrae","adm1_name1":"แพร่","adm1_name2":null,"adm1_name3":null,"adm1_pcode":"TH54","adm0_name":"Thailand","adm0_name1":"ประเทศไทย","adm0_name2":null,"adm0_name3":null,"adm0_pcode":"TH","valid_on":"2022-01-22","valid_to":null,"area_sqkm":69.30933405,"version":"v01","lang":"en","lang1":"th","lang2":null,"lang3":null,"adm3_ref_name":"Nam Lao","center_lat":18.2624115,"center_lon":100.33824768},"geometry":{"type":"Polygon","coordinates":[[[100.39143577900018,18.29615582400004],[100.39070742000007,18.29623157000009],[100.39042543500011,18.296168838000085],[100.39015825700017,18.29589182100017],[100.38949669400006,18.29482721300019],[100.38916148100014,18.294575022000174],[100.38881375800003,18.294424775000095],[100.3884802710001,18.29438900700012],[100.38805400300015,18.29441756900019],[100.38724336800016,18.294716276000145],[100.38611419500006,18.295182793000095],[100.38533878400011,18.29568475200017],[100.38513985300011,18.295813528000167],[100.38496058600009,18.295929574000183],[100.38429826100008,18.296443625000165],[100.38378192900018,18.29688022900001],[100.38305204700004,18.297280183999987],[100.38303201500014,18.297283019000133],[100.38229318900011,18.29738752999998],[100.38138691900008,18.297394086],[100.38068015700003,18.297348267000018],[100.38015704600019,18.297236248000104],[100.3799325060001,18.297188167000115],[100.37901180000011,18.297054767000077],[100.37830209900011,18.297189211000045],[100.37789390200015,18.297266538000088],[100.37746731800007,18.297256882],[100.3771854530001,18.297135932000117],[100.37682538800004,18.296981423000034],[100.37626452500007,18.296845422000104],[100.37593133600012,18.29684782200013],[100.37576324600008,18.29682370800009],[100.37563411400009,18.296805182000128],[100.3754242890002,18.29677508600014],[100.37508999500005,18.296637444000112],[100.37462152600011,18.29638619100018],[100.37427360800012,18.296210458000132],[100.37399353300015,18.296187008000118],[100.37372848600012,18.296379883000043],[100.37342476300012,18.296738542000128],[100.37302513700013,18.296766880000177],[100.37273655000013,18.29670016500006],[100.37259785700013,18.29666810300006],[100.37166202600002,18.296305615999984],[100.37115227800012,18.295889139999986],[100.37090978000015,18.295559867],[100.370519682,18.29510433700017],[100.37043935200012,18.295052521000173],[100.36983648300009,18.294663640000067],[100.36919576700018,18.294540921000078],[100.36858336200004,18.29448036100007],[100.3682354010001,18.294445948000146],[100.36718213500018,18.294402566000088],[100.36680827000009,18.294316120000076],[100.36672750700006,18.29421484700015],[100.3667151100002,18.293796668000084],[100.36670939300018,18.293603873],[100.3666410560001,18.29338793],[100.36653627700002,18.293246322000186],[100.366425526,18.293096651000155],[100.36571658800017,18.292770701],[100.36507538600006,18.292584316000102],[100.36408856100019,18.292508931000043],[100.36400851200005,18.292502815000034],[100.36311714100009,18.292545684000117],[100.36307590200016,18.292547666000132],[100.36305465100008,18.292556091],[100.36239567600018,18.292817305000142],[100.36222554500006,18.292884745000038],[100.36150766300017,18.2933163620001],[100.36138980300018,18.293387224000128],[100.36128500200016,18.293430342000136],[100.36074420000017,18.293652829000166],[100.36053953800007,18.293737031000035],[100.36003813600018,18.293782275000012],[100.35962054500015,18.29381996100011],[100.3577724700001,18.293701070000168],[100.35766033400006,18.293693856000118],[100.355419455,18.293467869000153],[100.35518703100018,18.293388647000143],[100.35388265600017,18.29294404600006],[100.35324087100008,18.29268123500009],[100.35277655400012,18.29263604700003],[100.35274673100002,18.292633144999968],[100.35238723200007,18.292598158000033],[100.350481623,18.292637100000036],[100.3490944940001,18.292506855],[100.3484397840001,18.29229504300008],[100.34800650600016,18.292023513000174],[100.34756272200019,18.291745402000174],[100.3474754950002,18.291690736000078],[100.34691398000018,18.291465529],[100.34667691900017,18.29143018800005],[100.34647461200007,18.29140002600019],[100.346180098,18.291356119],[100.34532687000012,18.29144799300019],[100.34491498900007,18.291492342000026],[100.34275930500002,18.291940371000067],[100.34234802300011,18.292185160000145],[100.34194918200006,18.29231527400009],[100.341190698,18.29247337700008],[100.34091642500016,18.292495598000073],[100.33912613000007,18.292640636000158],[100.33854704900006,18.292606995000142],[100.3385394300002,18.292606552],[100.33828572400017,18.29254467200002],[100.33796401,18.292305026000122],[100.33782116800012,18.29214498900012],[100.33768169400014,18.29198871900013],[100.33742798499998,18.29192683800011],[100.33702777400003,18.291878714000177],[100.33676181100014,18.291956959000174],[100.33633602000015,18.292049059000135],[100.33571207600005,18.292371711000044],[100.33512947200018,18.292872310000178],[100.33486448500014,18.29307786400011],[100.33453191500018,18.29351740800007],[100.33444272600019,18.293571752000105],[100.33433811300011,18.29354052700012],[100.3339338900002,18.293338507999977],[100.33339248700003,18.293266945000028],[100.3326941680001,18.293304109000076],[100.33186261300011,18.293600518000176],[100.33149145000004,18.293689213000164],[100.33127728900018,18.293679938000025],[100.33085933200016,18.293542926000043],[100.33021291000011,18.29299849900019],[100.32993946100015,18.29260215400018],[100.32976650900008,18.292086717000075],[100.32945811100012,18.291594152000073],[100.32942431000009,18.29154016600006],[100.32918335500011,18.290971384000102],[100.32879740100014,18.290597351000144],[100.3282886630002,18.29037485500004],[100.32780262200004,18.29017372600015],[100.32733763900018,18.28977871300009],[100.32681575400005,18.2893087490001],[100.32644042200013,18.28884852800013],[100.32612110100007,18.28834486200003],[100.32609447300018,18.287806879000186],[100.3260174620001,18.286569620000023],[100.32588624800007,18.28561258800005],[100.32581308100015,18.28488118600012],[100.32571902000012,18.284365195000134],[100.32551393000017,18.284065240000132],[100.32469529500003,18.283091445000082],[100.32425001400009,18.282319565000023],[100.32404239400012,18.28168596000006],[100.32403969800009,18.28133078800016],[100.32409350100016,18.280996750000043],[100.32413701600012,18.280791941000075],[100.32413497300007,18.28052287000014],[100.32418697600019,18.27995204900003],[100.32418468800017,18.279650690000096],[100.32404761100008,18.279404081],[100.32392311300009,18.279329598000174],[100.32358528500004,18.279353465999975],[100.32325083500007,18.279355781000106],[100.32317836600004,18.27933629900008],[100.32300947400012,18.27919599800009],[100.32288431900014,18.279035415000067],[100.32259760400012,18.278370063000068],[100.32217716000014,18.27789938000012],[100.3163419930001,18.275624752000056],[100.31087623000019,18.273493899000016],[100.29703909500006,18.268098472000077],[100.27801945900006,18.25964219400015],[100.27768701000014,18.259558746000152],[100.27767804300004,18.259551984000097],[100.27764941900017,18.259541950000028],[100.27759770100016,18.25954570200014],[100.27750864100005,18.259566755000037],[100.27706392100004,18.259752131000084],[100.27700162100001,18.259773006000103],[100.27691601700008,18.259778692000054],[100.27683217300006,18.259780956000043],[100.27674866700005,18.259783175000166],[100.27674654000015,18.259783229000163],[100.2765205570002,18.259868271000073],[100.27639766800007,18.25989977600011],[100.27633703200019,18.259903588999975],[100.27629414800003,18.259895354000093],[100.2762648170002,18.259864650000054],[100.27626178200018,18.25986147100008],[100.27625822400006,18.25984392700002],[100.27624142100018,18.259761031000096],[100.2762394950002,18.259758210000143],[100.27617649200005,18.25966599700007],[100.27606879100011,18.259578064000152],[100.2760096250002,18.259539251000035],[100.27590959600019,18.25952457300008],[100.27581680400016,18.25952800700003],[100.27579721500001,18.259528734000128],[100.27566712900011,18.259551763],[100.27554967000009,18.259593457999983],[100.27554772900015,18.259594588000084],[100.275505253,18.25961932900009],[100.27546628400012,18.259658798999965],[100.27544891500014,18.259723693000012],[100.2754152130002,18.259751194000103],[100.27536358200013,18.259766883000054],[100.27531718000017,18.259765484000013],[100.27527609600014,18.259758938],[100.27523490900006,18.259738759000015],[100.27516645900005,18.259650567],[100.27513002900008,18.259548523000092],[100.275116631,18.25942416600003],[100.27507526900018,18.259380117000035],[100.27503052700018,18.259370747000162],[100.27505391700015,18.25933528500002],[100.27505706900007,18.25929220100005],[100.27505370900013,18.259274374000086],[100.27504084000009,18.259206180000092],[100.27501275600002,18.25915833300013],[100.27496385400008,18.25910897100016],[100.27489958300004,18.259091183000123],[100.27485437400009,18.259073261000026],[100.27481600100003,18.259040393000134],[100.27480537900004,18.259010647000025],[100.27487027900008,18.258586547999982],[100.27486286900017,18.258489278000127],[100.27474211200001,18.25827769600005],[100.27474008800004,18.25824903200015],[100.27475446600016,18.25811961800008],[100.27475737100013,18.258093432000067],[100.27482756500007,18.257959097000025],[100.27493531000005,18.257790508000028],[100.27508588900014,18.257700262000014],[100.27524812500008,18.257684304000122],[100.27538391100012,18.257700401000136],[100.27554727800003,18.257748597000045],[100.27555999000003,18.257752349000157],[100.27565820000018,18.257800569000096],[100.2756897070002,18.257851356000117],[100.27569919200016,18.257932040000014],[100.275728367,18.25796796900005],[100.275761756,18.257971994000116],[100.27581270700006,18.257944033000058],[100.27599863000006,18.257821671000045],[100.27607405700019,18.257795668000085],[100.27614734100007,18.257780304999983],[100.27615776800013,18.25778212000006],[100.27631212100016,18.257772072000137],[100.27658547300007,18.257691368],[100.27666697900003,18.257612402000063],[100.27672294300004,18.257548306000047],[100.27671658600013,18.257434437000143],[100.2766890760002,18.25722904000014],[100.27676520500017,18.257013759000188],[100.2769431860001,18.256818604999978],[100.2769586030002,18.25680169900005],[100.27702436100014,18.256673823000085],[100.27693927300004,18.256262659000186],[100.2769723990001,18.255179197000075],[100.27692713000016,18.25460111700005],[100.27684183800005,18.254331014000172],[100.2767170670001,18.25393590800013],[100.27661746600012,18.25362937300008],[100.27649140000017,18.253241392000064],[100.27622766700011,18.25295396000007],[100.27604141600006,18.25273953100003],[100.27595249300009,18.25250485100014],[100.27594105500003,18.25234317800016],[100.27600516299998,18.25198984000008],[100.276238342,18.251605961],[100.27640131600003,18.251443125000037],[100.276466997,18.251305442000103],[100.2764713050002,18.251192678],[100.27647102800012,18.2511903030001],[100.27645746900015,18.251074992000042],[100.27642754800007,18.25082045400012],[100.27633675000016,18.250634079000065],[100.27606624200018,18.250078814000062],[100.27590153200003,18.249740718000112],[100.27547111600012,18.24910638500012],[100.27537341000004,18.24884135900004],[100.27530888000001,18.24866632500016],[100.27492196800017,18.246963159000074],[100.27472275500014,18.246376301],[100.27437912700009,18.245682568000063],[100.27373765300013,18.24424087500006],[100.27316063400008,18.24319578],[100.27226273700018,18.241760687000067],[100.27165617000014,18.240176611000095],[100.2714762330001,18.23942431600011],[100.27147265600007,18.23940934400008],[100.2714440090001,18.239289580000104],[100.2714120240002,18.2392128030001],[100.2722482330002,18.239064200000144],[100.27246609400004,18.2390627530001],[100.2726461370001,18.239070611000045],[100.27313047700017,18.23923937400008],[100.27344398700018,18.239364009000155],[100.27418289400015,18.23936814600006],[100.27463796800015,18.23941942800002],[100.27487556600005,18.239526467000076],[100.27490167100018,18.23953672200014],[100.2777207490002,18.23738944300004],[100.27817118300015,18.236807138000074],[100.27866784800011,18.236070650000045],[100.27897500200015,18.23532637000011],[100.27899063800004,18.234873685000082],[100.27893036400019,18.234403406000126],[100.27888804600008,18.233797234000065],[100.27892116700002,18.233145304000118],[100.2792431110002,18.23176589600007],[100.27987473700006,18.230124765000085],[100.28005617500014,18.229581633000066],[100.28070397700014,18.229126736000183],[100.28186863300004,18.2287327520001],[100.28321384100013,18.22846628300016],[100.28360391100006,18.2284388060001],[100.28489691400006,18.228347725000106],[100.28617665100012,18.228339141000106],[100.28801893600007,18.22849841200008],[100.28976936000015,18.22837936200017],[100.29127249500004,18.228219053000146],[100.29223585000011,18.22793363700015],[100.29344489200014,18.22747491900003],[100.29491628900013,18.22909559800007],[100.29639824600008,18.229107032000172],[100.29778960300018,18.229011792999984],[100.29933875500006,18.229001296000092],[100.29954240800015,18.22921447000016],[100.29988619400018,18.230156178000072],[100.30011246300018,18.230390654000132],[100.3039568820002,18.230967260000057],[100.30427128899998,18.23107041800006],[100.30958761500005,18.231870949000154],[100.3108268630001,18.232038516000046],[100.31119908400007,18.232050053000023],[100.31153422400007,18.232030155000132],[100.31184323600007,18.23196466600018],[100.3134387660001,18.23149251000018],[100.31398658900002,18.231337361000044],[100.31460836500014,18.231216910000114],[100.31566440500012,18.23103009700003],[100.31797527500004,18.230633969999985],[100.31918226100004,18.23043202100007],[100.31932957700019,18.230423968000025],[100.31948824200009,18.230454563000023],[100.3197172510001,18.230530443000077],[100.3208272080002,18.23114245700009],[100.32188535900008,18.231723130999967],[100.32202939100011,18.23176790800005],[100.32216221400017,18.231791639000164],[100.32263745900013,18.231784840000046],[100.32364281899999,18.231718043000114],[100.32496139700004,18.231656117000114],[100.32524503200017,18.23164711200019],[100.32554009900014,18.231687321000038],[100.32566202700008,18.231732252000086],[100.32575085000008,18.231784447000052],[100.3258249910001,18.231843786000127],[100.326201078,18.232365781000055],[100.32753512900018,18.234342274000085],[100.32788487800008,18.234790511000085],[100.3280817750001,18.235003916000096],[100.32823358300004,18.235101441000097],[100.32841104800008,18.23518119300013],[100.32876165200014,18.235256215999982],[100.32896861500012,18.23533928100005],[100.32912408300018,18.235433266000086],[100.32923205300006,18.23558039],[100.32938538700017,18.23587858999997],[100.32959551100015,18.236377087000108],[100.32971808500014,18.236506504999966],[100.3298772890002,18.236607503000187],[100.33015087100006,18.23672882900007],[100.33069018800018,18.23690816600009],[100.33095244800006,18.236994365000044],[100.33117065600015,18.237101990000156],[100.331547941,18.23729301100002],[100.3317924010002,18.237392294000188],[100.33196559100014,18.237462630000152],[100.3324208100002,18.237625848000164],[100.33250501400005,18.237656041000037],[100.33287805300012,18.23777315100017],[100.33319224899998,18.237904754000112],[100.33335890200004,18.23801626000011],[100.33352585500006,18.238166494000097],[100.33369350700008,18.23840825800005],[100.33374676900007,18.238480829000082],[100.33380148300012,18.23855538300006],[100.33393506200008,18.2386776780001],[100.33405344900001,18.238740226000175],[100.33410249899998,18.238749738000024],[100.33426378000013,18.23878101100007],[100.3345698870001,18.238817608000147],[100.3347175580002,18.238855308999973],[100.33493961900018,18.238984030000097],[100.33604091500018,18.239895275000038],[100.33711946700004,18.24072217300011],[100.33736022400018,18.240885967000168],[100.33751897800016,18.240927112000065],[100.3376662760001,18.24091552100009],[100.33777293700012,18.240890130000025],[100.33795258800012,18.240772688999982],[100.33816653200006,18.240580222000176],[100.33860616300012,18.240132075000133],[100.33890719300018,18.23979228000013],[100.33911925100011,18.239533960000074],[100.33925701200008,18.239323727],[100.3393303590002,18.23915199200013],[100.33935411500005,18.239004383000065],[100.33938073700011,18.23858089500004],[100.33940285800008,18.238219271000105],[100.33945622100015,18.238038160000144],[100.33953974400004,18.23789489],[100.33980599900013,18.237564854000084],[100.34004784400014,18.23729681300017],[100.3403005150002,18.23714285000017],[100.34060313800006,18.237012311000115],[100.34113936500012,18.236837336000065],[100.34134299100009,18.23677883500011],[100.34146683800014,18.236701870000047],[100.34156049400008,18.23658231200011],[100.3421093990001,18.23546551600009],[100.3421784250001,18.23537942200005],[100.34225271700006,18.235331339000084],[100.3427492260002,18.235170905000132],[100.34323091200008,18.235024844000066],[100.3433200990001,18.234971902000098],[100.3434190600002,18.234895107000057],[100.34351289100005,18.234799328000065],[100.34357159500013,18.234665742000175],[100.34378123600015,18.23344668700014],[100.34387412300009,18.233227251000073],[100.34396766600008,18.233093422000138],[100.34411628300006,18.23300201100011],[100.34441388300019,18.232866749000095],[100.34491488600014,18.232644448000087],[100.3450788360002,18.23260524900013],[100.3452181580002,18.232599513000025],[100.34536772500002,18.232631759000185],[100.34595655800018,18.232827380000117],[100.34629093800015,18.232943937000073],[100.3464454830002,18.23297614600017],[100.34658001000008,18.232994227000177],[100.34704287600016,18.232990973000085],[100.34721224500004,18.233008804000065],[100.34740181,18.233064545000104],[100.34793121600012,18.233298633000118],[100.34819075600012,18.233391927000014],[100.34839009700016,18.233423820000098],[100.34869893000007,18.23345493900007],[100.34902277200001,18.23349546500009],[100.3491924330001,18.23355134500008],[100.34936264500016,18.233678562000023],[100.34965882600005,18.23400465200018],[100.3503933400001,18.23501729900005],[100.35079668300017,18.235685076000152],[100.35091841600018,18.235979102000158],[100.35091970200011,18.236145557000157],[100.35086667600018,18.236369472000092],[100.3506324010001,18.236970402999987],[100.35048953300014,18.23716165400009],[100.35019826500002,18.237472860000082],[100.35005034100004,18.23765463900014],[100.34998165200017,18.237783539000134],[100.34994319400016,18.23795979100015],[100.349954358,18.238116664000074],[100.3500683370001,18.23869611400005],[100.35015460000005,18.238909533000026],[100.3502905270002,18.23910833300016],[100.35043041200015,18.239235794000138],[100.35044592399998,18.239249927000117],[100.35063089000005,18.239353259000154],[100.35092045300013,18.239465365],[100.35160417300017,18.239698348000047],[100.3518487950002,18.239791747000027],[100.35204389900014,18.239918786000146],[100.35216449400008,18.24006537600019],[100.3522453430001,18.240221759000065],[100.3523114100002,18.240397271],[100.35238514000008,18.24091993100012],[100.3526173940001,18.24198842700008],[100.35268275900006,18.24207357600011],[100.3528078180002,18.24215354600011],[100.35293974500019,18.242202549000183],[100.35317223000015,18.242288902000155],[100.35343177200014,18.242342384000096],[100.35371437700019,18.242441857000074],[100.35385796700012,18.242553507000082],[100.35398979400014,18.242748250000147],[100.35409841100017,18.243150693000132],[100.35433535400011,18.244097750000037],[100.35441073500004,18.24421580900014],[100.35454210500006,18.244351259000155],[100.35482907000011,18.2445449060001],[100.35510941300015,18.244685235000077],[100.35535836400004,18.244778347000135],[100.3556566850001,18.244835525999974],[100.35633932000019,18.244836626000108],[100.35665565900018,18.244816597000124],[100.35700890599998,18.244754797000155],[100.35746107000011,18.24464485900012],[100.35783210500017,18.24447619900019],[100.3581352440001,18.244355458000086],[100.35835854500004,18.24434201600019],[100.35852636600015,18.244376403000103],[100.35871372700012,18.24452924300016],[100.3589893910002,18.244865273000073],[100.35910149900002,18.24491784100013],[100.35920690200015,18.2449052340001],[100.35925612800014,18.244851521000157],[100.35927035600008,18.2447681540001],[100.35929767300013,18.24460811500012],[100.35937075700014,18.24442970700005],[100.35950635100016,18.24431015100015],[100.35971099100004,18.24429091100012],[100.35999064500004,18.24434229000002],[100.36038899300019,18.244493632000115],[100.36069452900006,18.24468120800003],[100.3608264130001,18.24488187600008],[100.36094083100016,18.245230905000085],[100.36108678700015,18.24564493800017],[100.36120625800004,18.245845695000185],[100.36138125600013,18.246004546999984],[100.36156815600009,18.24609809100008],[100.36174829900017,18.246120530999974],[100.3618672450001,18.246099240000092],[100.36273016900009,18.245902768000178],[100.36304887000006,18.245803536000153],[100.363382295,18.24566469500013],[100.36359949100006,18.245562591],[100.36367042300009,18.245501037000054],[100.36376356800002,18.24539623000004],[100.36381913100013,18.245291686000087],[100.36384485000019,18.245216085000152],[100.36386779800011,18.244784975000186],[100.36388875000011,18.244580126000187],[100.3639401860001,18.244428930000083],[100.36403728500005,18.24434922800009],[100.36415334700007,18.244290944000056],[100.36427733800008,18.244286469000144],[100.36440537200019,18.24431787900005],[100.36453385599998,18.244406745000106],[100.3648712280002,18.244774237000172],[100.36498487300008,18.244888343000184],[100.36506578200016,18.24492461200009],[100.36512695900012,18.24493110600008],[100.36523001800003,18.24492544400016],[100.36528396900019,18.244902897000145],[100.36536592100003,18.244835814],[100.36549052200013,18.24461820200014],[100.36575194500017,18.244099153000093],[100.36577452800014,18.24402018100011],[100.36579166600018,18.243904308000026],[100.36578316000015,18.243475848000116],[100.36572732700006,18.242597029000137],[100.36572349900013,18.242436977000068],[100.3657354030002,18.242311288000053],[100.36578341199998,18.24218780700005],[100.36584193900012,18.24209134200015],[100.3659083330001,18.242012059000047],[100.36602367600017,18.24192996300019],[100.36622927900004,18.241854615000022],[100.36694892000014,18.241593351000063],[100.36734459000002,18.241432910000185],[100.36748578300006,18.241360478000047],[100.367593376,18.241275975000065],[100.36771085200013,18.241137223000123],[100.3678457330002,18.240917072000116],[100.36833213300014,18.24016491000009],[100.36842143200016,18.240048520000016],[100.36851367400016,18.239978906000147],[100.36859843500014,18.239941354000052],[100.36869883600019,18.23992586300011],[100.36881740500013,18.23992747800014],[100.36898023800018,18.23998542200013],[100.37007293599999,18.24062778000018],[100.370194395,18.240668781000124],[100.37045492900006,18.240696471000092],[100.37074335300014,18.24066485300017],[100.37097009400014,18.240655844],[100.37113000300019,18.24066947400007],[100.37127211800009,18.240715250000164],[100.37153069700008,18.240821758000095],[100.37178125200012,18.240891386000158],[100.3719643930001,18.24090977800006],[100.37219369000013,18.24089828199999],[100.37240999100004,18.240872103000072],[100.3728197740001,18.24086916699997],[100.37327352900007,18.240885617000117],[100.3736294840001,18.240920009000092],[100.3738590640001,18.24096619100004],[100.37400695300016,18.24099594500018],[100.37404310000005,18.241008906000104],[100.37422437100003,18.241126320000035],[100.37432886700014,18.241196058000128],[100.37436908800004,18.241212970000106],[100.3744816910002,18.241231698000036],[100.37457003900005,18.24125403900007],[100.37460231100005,18.241280614],[100.37461083600016,18.241345654999975],[100.37454744000001,18.241438018000053],[100.3744644520001,18.24158796200004],[100.37444143200014,18.241718329000093],[100.37445037900011,18.24183697600006],[100.37448729000005,18.24194393600004],[100.37458030900018,18.242050493000022],[100.37487697500006,18.24214729200014],[100.37504326200019,18.24222779700017],[100.3751560340001,18.242298469000104],[100.37606641400015,18.243416407000097],[100.37638693100007,18.243716852000148],[100.37666809000018,18.24395361],[100.3767723680001,18.24412843700003],[100.37684691700014,18.244261334999976],[100.37695047200009,18.244344867000166],[100.37714946300014,18.244413664999968],[100.37736321200015,18.244489380000118],[100.37751816200017,18.244565517000126],[100.37765863100014,18.244669851000026],[100.37783022000008,18.24499167400012],[100.37802319000019,18.245229064000057],[100.378274352,18.245388785000046],[100.37873135799998,18.245554045],[100.37907701000017,18.245579649000035],[100.37933441500007,18.2455988640001],[100.37950345900003,18.245597647000068],[100.37970261600009,18.245687510000153],[100.380042253,18.245881704000055],[100.3802365480002,18.245941168000172],[100.38030341300015,18.24603198400007],[100.38032773800012,18.246319750000055],[100.38034348700006,18.246453071000133],[100.38041815000014,18.246600019000084],[100.38055205200004,18.246802718000026],[100.38070015599999,18.24694211000002],[100.38078122400015,18.24696961300009],[100.3809502110002,18.246961374000023],[100.3810874470002,18.246928853999975],[100.38131702800007,18.246874453000032],[100.38145667500015,18.24687344500012],[100.38169921500014,18.246871695000152],[100.38205945900012,18.246883142000115],[100.3823393560001,18.246958371000062],[100.38245021300014,18.247034822000046],[100.3825604600001,18.247034026000165],[100.38266313000008,18.24700519600009],[100.38292699600004,18.246911992000037],[100.383227,18.246741275000034],[100.38342510700016,18.24669770400004],[100.38366736800003,18.24666084],[100.38388797100009,18.24667329199997],[100.38418980800009,18.246734317000175],[100.38433000600014,18.246803530000136],[100.38442610800013,18.246873065000102],[100.38446408000004,18.247027297000045],[100.38451134700011,18.24742726200003],[100.38456407500007,18.247588408000013],[100.3846973150001,18.24770683400004],[100.38479430800004,18.247888726000042],[100.38481813700014,18.24811329100004],[100.38481295800011,18.248387223000123],[100.38488929600004,18.248744840000143],[100.38509079600004,18.249129643000117],[100.38535071300015,18.24946486400006],[100.38555750500018,18.249589777000153],[100.3858460420002,18.24982647200011],[100.38588390600012,18.249966653000058],[100.3857142990002,18.250824677000026],[100.3853988680001,18.251831242000094],[100.38516256000008,18.25261951800013],[100.38512163000007,18.253020121000134],[100.38498251300007,18.25383773900012],[100.38498450500003,18.25410158799997],[100.38505609999999,18.254301735000126],[100.38517690600003,18.254528279000056],[100.3853106580001,18.25462095400013],[100.38556320100014,18.254686019000133],[100.38582926700013,18.254690777000178],[100.38659071200016,18.25448460000007],[100.38760417000015,18.254276587000163],[100.38821346700001,18.254305617000114],[100.38873250100016,18.25442893700017],[100.38920884300012,18.254465616000118],[100.38954523300009,18.254509996000024],[100.38964392800017,18.25459623500018],[100.38997025200018,18.25513566000012],[100.39051513800013,18.25586747400007],[100.39107434400006,18.25663931600019],[100.3916331320001,18.257357649000028],[100.39196027000014,18.2579973980001],[100.39211870200012,18.25855141800014],[100.39214942300009,18.258892322000065],[100.39212440500017,18.259267079000097],[100.3920358000002,18.259568724000076],[100.39177425600002,18.260132487000078],[100.3915325390002,18.260548954],[100.39130974600016,18.26070441700017],[100.39121269800012,18.26082551999997],[100.39121355000003,18.26093253400012],[100.39131278300016,18.2610856550001],[100.39135590200004,18.26122580700013],[100.39136439800006,18.261413033],[100.39135188699998,18.261600413000053],[100.39126873500004,18.261708039999974],[100.3910323120001,18.261910422000028],[100.39102023900011,18.261921213000107],[100.39111282700014,18.26195832899998],[100.39128718400008,18.262028232000034],[100.39146213100008,18.262098110000125],[100.39163646100008,18.262166872000137],[100.39181081500016,18.26223677400003],[100.39198574000011,18.262306654000156],[100.3921600970001,18.262376555000174],[100.39233443600006,18.26244643700005],[100.39250879500014,18.262516336999965],[100.3926831350002,18.26258621900007],[100.39285807900012,18.262656115000027],[100.39303243900014,18.262725998],[100.3932067790002,18.262795898000093],[100.39338053500018,18.26286578300011],[100.39355489900004,18.262936803000116],[100.39372924800017,18.26300782300018],[100.39390302100003,18.263077726000176],[100.39407736100009,18.263147607000178],[100.39425173100011,18.263218627000185],[100.3944260720001,18.26328852500012],[100.39459983800009,18.263359549000143],[100.39477419400009,18.263429430000144],[100.39494854400016,18.26350044900005],[100.39512290300007,18.263570345000176],[100.39529665800018,18.263640230000192],[100.39547102900013,18.263711248],[100.39564537100017,18.2637811460001],[100.39581974000009,18.263852164000127],[100.3959934950002,18.263922047000108],[100.39616784600014,18.263993064000033],[100.39634220700009,18.264062961000036],[100.3965165580002,18.26413397800019],[100.3966903340002,18.264203860000066],[100.39686468500014,18.264274877],[100.39703904700019,18.264344774],[100.39721339900007,18.264415790000044],[100.39738715500005,18.264485673000024],[100.39756152100006,18.26455556900015],[100.3977358730001,18.264626585000144],[100.39791024100015,18.264697600999966],[100.39808342900011,18.26476974500008],[100.39825662800013,18.264843027000097],[100.39842982900012,18.264916310000046],[100.39860244500005,18.264990736000186],[100.39877504900011,18.265065143000015],[100.39894826000017,18.265139564000037],[100.39912145400007,18.265212847000157],[100.39929464300013,18.265284989000122],[100.39946901700017,18.26535600400001],[100.39964335299999,18.265424759000098],[100.39981887100015,18.26549238400014],[100.39999496700017,18.26555660800011],[100.40017219900005,18.265618566000057],[100.4003506250001,18.265678252000043],[100.40053077600015,18.2657334110001],[100.40071147900011,18.26578516600017],[100.40089336100004,18.26583467200004],[100.40107638600017,18.265880773],[100.40125999100019,18.265925729000173],[100.40144418200009,18.26596844000005],[100.40162837300011,18.266011132000074],[100.40181255600015,18.26605270500005],[100.4019973230001,18.266094271999975],[100.40218150600015,18.266138105000152],[100.40236512000007,18.266181940000138],[100.40254813900003,18.266226916000164],[100.40273058800011,18.26627414000012],[100.40291248300014,18.266324764000046],[100.40309261900012,18.266378800000098],[100.40327159600008,18.26643622200004],[100.40344884900009,18.266498175000095],[100.40362435000014,18.26656352000009],[100.40379929400007,18.2666322660001],[100.40397307400008,18.26670441900012],[100.40414627700011,18.266777698000055],[100.40431889900015,18.266852098000186],[100.40449152500003,18.266926519000037],[100.40466414200006,18.26700205900005],[100.40483734700007,18.26707533399997],[100.40501114200015,18.26714747000011],[100.4051854810001,18.267216219000034],[100.40536100200012,18.26728383900013],[100.40553769799999,18.267349174000117],[100.40571437600005,18.267414527000085],[100.40589164000016,18.267477598000085],[100.40606948900006,18.267540682000117],[100.40624734400012,18.267603750000035],[100.4064246060002,18.267666838000082],[100.40660185000013,18.26772990800015],[100.40677855100012,18.26779526000007],[100.40695522400006,18.267860594000126],[100.40713074900009,18.267928212000015],[100.40730510700013,18.26799695900013],[100.40747888000004,18.26806797000006],[100.40765092100014,18.268142373000103],[100.40782117300006,18.268217927000137],[100.40799032299998,18.268299146000174],[100.4081576800001,18.268381500999965],[100.40832389700006,18.268468378000136],[100.40848895600016,18.268556387000046],[100.40865342100017,18.268645537000168],[100.40881672600005,18.268736955000065],[100.40898002100016,18.26882951300007],[100.40914275400007,18.268922055000132],[100.40930606000006,18.26901347100005],[100.40946935300013,18.26910489000005],[100.40963324400013,18.269196303000058],[100.4097983040001,18.26928432600016],[100.4099645300002,18.26937120500014],[100.4101313160001,18.26945581900003],[100.4103004550002,18.26953815600001],[100.41046959300013,18.2696182360001],[100.41063872100011,18.26969943300014],[100.41080902400006,18.269778382000027],[100.41097872400007,18.269857318000163],[100.41114959999999,18.269935123000096],[100.41132048000009,18.27001292900013],[100.41149135100011,18.270089615000074],[100.41166282200004,18.27016741600005],[100.4118336900001,18.270244081999977],[100.41200515600008,18.27031962300009],[100.41217720200012,18.270396299000083],[100.4123486590002,18.2704729620001],[100.41252013700017,18.27054964000007],[100.41269159400002,18.270626301999982],[100.41286305300014,18.270702983000035],[100.4130339240001,18.270779647000154],[100.41320480700017,18.27085745100004],[100.41337568800014,18.27093525500004],[100.41354598300012,18.27101306300011],[100.4137162880001,18.271092008000153],[100.4138859970002,18.271172080000042],[100.4140557240001,18.27125215100017],[100.41422427400005,18.271333349000145],[100.41439281500004,18.27141456800001],[100.41456076500009,18.27149691000011],[100.41472874300013,18.271580372000074],[100.41489672000006,18.27166385300012],[100.41506410200009,18.271748458000104],[100.41523091800019,18.271833067000102],[100.41539772500005,18.271918796000023],[100.41556452100019,18.272003405000135],[100.41573074400014,18.272090276000142],[100.41589696400007,18.272176029000036],[100.41606319300001,18.272262900000044],[100.41622942100014,18.272349772000155],[100.41639506400003,18.2724366490001],[100.4165607060001,18.272523523000018],[100.41672633900004,18.272611519],[100.41689198100005,18.27269839400003],[100.41705704700018,18.272786412000187],[100.41722268000012,18.272874408],[100.41738832400017,18.27296128300003],[100.4175539850001,18.273050417000093],[100.41771903199998,18.273138434000032],[100.41788409900005,18.273226433000104],[100.41804915100005,18.273314449999987],[100.418214223,18.27340358800012],[100.41837868800002,18.273491591000038],[100.41854376000003,18.273580728000184],[100.41870823300002,18.273669869],[100.41887270300015,18.273759009000116],[100.41903717400015,18.27384815200014],[100.41920167400008,18.2739384300001],[100.41936556000019,18.274027576000037],[100.41953004400011,18.27411783700012],[100.41969392600015,18.274206980000145],[100.41985782100011,18.274297264000154],[100.42002230200012,18.274387524000133],[100.42018619900011,18.274477807999972],[100.42035009400007,18.27456807300007],[100.42051399000013,18.274658354],[100.42067788400004,18.274748620000025],[100.42084177300018,18.274837763],[100.42100566800013,18.274928046000127],[100.42116898800015,18.275019452000038],[100.42133113400007,18.275113125000075],[100.42149210700018,18.275206809000167],[100.42176772500005,18.27536853000015],[100.4216245930001,18.275505135000174],[100.42149144200005,18.275633771000173],[100.4213582910001,18.275762386000054],[100.42122574300015,18.275891017000106],[100.42109259500018,18.27601963100011],[100.42095943900017,18.276148266000178],[100.42082569000019,18.27627576500015],[100.42069135500014,18.276403270000117],[100.4205564250002,18.276529639000046],[100.42042088900018,18.27665603200012],[100.42028297000002,18.276780166000037],[100.4201438720001,18.27690318600014],[100.4200023750002,18.27702284600008],[100.41985968000017,18.27714137600009],[100.41971639800005,18.277259908000133],[100.41957252100013,18.277377307000165],[100.41942862600007,18.27749472500011],[100.41928415500007,18.277611009000168],[100.41913966800013,18.277728411999988],[100.41899519400005,18.277844695000113],[100.41885010600015,18.277959863000035],[100.41870443500011,18.27807501600006],[100.41855817000015,18.278190190000032],[100.41841129400007,18.278304233000142],[100.41826384000012,18.278417139000055],[100.4181139850001,18.27852782300016],[100.41796293900018,18.27863623800016],[100.41781010500017,18.27874354700009],[100.41765844300005,18.278850846000125],[100.41750740500015,18.278960399000084],[100.41735993600014,18.279073325000184],[100.41721307400007,18.27918736500004],[100.41706799200011,18.279303650000145],[100.41692350000005,18.2794199330001],[100.416779028,18.27953733400011],[100.41663573300013,18.279654746000062],[100.41649185200009,18.279772144000162],[100.41634855700005,18.27988955500001],[100.41620465700004,18.280006951000132],[100.41606017900017,18.280123232999983],[100.4159156830001,18.28023951400013],[100.41577121400013,18.280356933000178],[100.4156273320001,18.280474331000107],[100.41548403500008,18.280591741000023],[100.4153413430002,18.2807113880001],[100.41519984300004,18.280831045000127],[100.41505832400014,18.28095068199997],[100.41491742300008,18.28107145500013],[100.41477712000011,18.281192220000094],[100.41463680800007,18.281314127000144],[100.41449590400015,18.2814348980001],[100.41435558400008,18.281555666000145],[100.41421408200006,18.281675302000053],[100.41407317700003,18.281796075000045],[100.41393345200015,18.281917976999978],[100.413792554,18.28203986700015],[100.41364866900011,18.28215727999998],[100.4134994040001,18.282266819000085],[100.41334354800017,18.282368489000135],[100.41318234500005,18.282463440000072],[100.41301932700009,18.282555006000052],[100.4128551120001,18.28264544400008],[100.4126921080001,18.282738148000078],[100.41252969000016,18.282830831000012],[100.41236666600014,18.282923535000066],[100.41220365100008,18.28301510099999],[100.4120406360002,18.283106668000016],[100.41187762200019,18.283198233000064],[100.41171458700012,18.28328979900016],[100.41155038200014,18.283379115000116],[100.41138557000016,18.283468433000053],[100.41122134500017,18.283557749000124],[100.41105952000004,18.28365156500007],[100.41090188400011,18.283750987000133],[100.41074664900015,18.283854928000096],[100.41059321000017,18.28396109600004],[100.41044094800014,18.28406727400011],[100.41028930500016,18.284175689000108],[100.41013705300014,18.284284126000102],[100.40998478500018,18.284390283999983],[100.40983134800018,18.284496471000182],[100.40967669600019,18.284600389000047],[100.40951965800014,18.284700946000157],[100.40936083800017,18.284799255],[100.40920139100018,18.284895310000024],[100.40904018700019,18.284991379000076],[100.40887954200014,18.285086321000108],[100.40871951300011,18.285182381000084],[100.40856009900006,18.285279557000138],[100.4084018600002,18.285380120000184],[100.40824482700009,18.285479555000165],[100.40808719600011,18.285580114000027],[100.40793073800012,18.285680665000086],[100.40777370300003,18.285782340000083],[100.40761727400013,18.28588402800017],[100.40746022900004,18.285984583000015],[100.40730379700005,18.286086253000065],[100.40714735200015,18.286187940000048],[100.40699583900016,18.286286417000156],[100.40699091700009,18.286289610000154],[100.40683387200016,18.286390165],[100.4066774210001,18.28649185400019],[100.40651978900019,18.286592412000118],[100.40636275300017,18.286691826000038],[100.40620450700004,18.28679126900016],[100.40604568600014,18.286889575000146],[100.4058862440001,18.28698674800006],[100.4057268090001,18.28708394100005],[100.40556738400016,18.287181113000088],[100.40540795500004,18.28727942300003],[100.40525031300012,18.28737886],[100.40509326500012,18.287479413000085],[100.40493684200004,18.287582219000058],[100.40478098400013,18.28768502300005],[100.40462634700003,18.287788938],[100.40447228600016,18.287893985000096],[100.40431824500013,18.287999033000062],[100.40416538800014,18.288105212000062],[100.4040119180001,18.28821137500006],[100.4038590580002,18.28831755400006],[100.40370680400002,18.288423708000153],[100.40355633500013,18.288533246000156],[100.40340646000004,18.28864391900015],[100.40325717300004,18.288754571000084],[100.40310791700017,18.288866360000156],[100.40295743900015,18.288974780000103],[100.40280577300018,18.28908432600008],[100.40265412100007,18.289192735000086],[100.4025018530001,18.289300028000184],[100.40234899200016,18.28940620300017],[100.40219374499998,18.289510121000035],[100.40203550800015,18.289608421000025],[100.4018718550002,18.28969772500011],[100.40170221900019,18.289776916],[100.40152901500005,18.289851595000073],[100.40135758100007,18.28992854000012],[100.4012503410001,18.28997771500019],[100.40118734900005,18.290006596000183],[100.4010165150001,18.290084656999966],[100.40084628300008,18.29016271100005],[100.4006748650001,18.29024077600019],[100.40050403500015,18.29031769700009],[100.40033319800017,18.290395756000066],[100.40016238100014,18.29047381500004],[100.39999214900007,18.290551871000105],[100.39982190800015,18.29063106500007],[100.39965168500015,18.290710239000077],[100.39948205000007,18.290789428000096],[100.39931302100001,18.290870853],[100.39914400400016,18.29095229500018],[100.39897498200003,18.291034859000092],[100.39880594300018,18.291115162999972],[100.3986363200001,18.291196592000063],[100.39846729700002,18.291279156000144],[100.39829888600008,18.291362852000134],[100.3981316600001,18.291447660000074],[100.39796562200019,18.291534719000083],[100.39780199700004,18.29162514000018],[100.39764074400011,18.291718941],[100.39748190100005,18.291816121000068],[100.39732605900014,18.291918917000032],[100.39717436000012,18.29202506200005],[100.39702508500011,18.292135727000073],[100.39687758500014,18.29224862100017],[100.39673189400008,18.292364896000095],[100.3965873730001,18.292481165000027],[100.39644288100004,18.292598571000156],[100.39629778200003,18.29271596300009],[100.39615208900017,18.292832240000052],[100.39600459300004,18.292945149000047],[100.39585532200005,18.293056932000127],[100.39570602600008,18.293167578000066],[100.39555734400005,18.293279358000063],[100.39540806500008,18.293390021000107],[100.39525819599999,18.293501809000077],[100.39510889600007,18.293612454000083],[100.39495903000011,18.29372312100014],[100.39480913800014,18.293832649000137],[100.39465865700004,18.293942183000127],[100.39450817800014,18.294051715000137],[100.39435710200007,18.29416011500001],[100.39420542200014,18.29426853600006],[100.39405314600015,18.29437582100013],[100.39390027400009,18.294481975],[100.39374739200008,18.294587006000086],[100.39359274200007,18.294690930000172],[100.39343627500017,18.294792590000043],[100.39327922800004,18.294894272000136],[100.39312157000012,18.294993681999983],[100.39296332700013,18.295093112000075],[100.39280508300016,18.295192528000086],[100.3926468360001,18.295291957000074],[100.39248917800006,18.295391368000026],[100.3923321150001,18.295491911000113],[100.39217564800003,18.295593587000155],[100.39202038200017,18.295696375000148],[100.39186812500009,18.29580366100015],[100.39172241200004,18.29591879500009],[100.3915796820001,18.296037306000187],[100.39143577900018,18.29615582400004]]]}}]}