{
  "type": "FeatureCollection",
  "features": [
    {
      "type": "Feature",
      "id": 203909326,
      "properties": {
        "id": 203909326,
        "name": "สายน้ำ",
        "category": "สายน้ำ",
        "highway": null,
        "waterway": "drain",
        "ref": null
      },
      "geometry": {
        "type": "LineString",
        "coordinates": [
          [
            100.2980187,
            18.2738896
          ],
          [
            100.2986208,
            18.2734306
          ],
          [
            100.2987106,
            18.2733737
          ],
          [
            100.29879,
            18.2733611
          ],
          [
            100.2989856,
            18.2733435
          ],
          [
            100.2992407,
            18.2733302
          ],
          [
            100.2997371,
            18.2732814
          ],
          [
            100.2998303,
            18.2732778
          ],
          [
            100.299905,
            18.2732965
          ],
          [
            100.3000904,
            18.2734601
          ],
          [
            100.3001515,
            18.2734944
          ],
          [
            100.3002407,
            18.2734945
          ],
          [
            100.300352,
            18.273456
          ],
          [
            100.3004731,
            18.2733618
          ],
          [
            100.3006084,
            18.2732157
          ],
          [
            100.3011282,
            18.2723997
          ],
          [
            100.3012618,
            18.2722737
          ],
          [
            100.3015031,
            18.2721141
          ],
          [
            100.3015886,
            18.272053
          ],
          [
            100.3016547,
            18.2719266
          ],
          [
            100.3018429,
            18.2713651
          ],
          [
            100.3018438,
            18.2712785
          ],
          [
            100.3018213,
            18.2711995
          ],
          [
            100.3017243,
            18.2709489
          ],
          [
            100.3017105,
            18.2708724
          ],
          [
            100.3017049,
            18.270786
          ],
          [
            100.3017561,
            18.2702092
          ],
          [
            100.3018247,
            18.2694642
          ],
          [
            100.3018923,
            18.2688816
          ],
          [
            100.3020569,
            18.2677102
          ],
          [
            100.302069,
            18.2676086
          ],
          [
            100.3021126,
            18.2673222
          ],
          [
            100.3021171,
            18.267224
          ],
          [
            100.3021052,
            18.267128
          ],
          [
            100.3020589,
            18.2669077
          ],
          [
            100.3019962,
            18.2666453
          ],
          [
            100.3019758,
            18.2665324
          ],
          [
            100.3019551,
            18.2663653
          ]
        ]
      }
    },
    {
      "type": "Feature",
      "id": 675096138,
      "properties": {
        "id": 675096138,
        "name": "สายน้ำ",
        "category": "สายน้ำ",
        "highway": null,
        "waterway": "stream",
        "ref": null
      },
      "geometry": {
        "type": "LineString",
        "coordinates": [
          [
            100.3518355,
            18.2635367
          ],
          [
            100.3516853,
            18.2628031
          ],
          [
            100.3513849,
            18.2623345
          ],
          [
            100.3510094,
            18.2618149
          ],
          [
            100.3508699,
            18.261173
          ],
          [
            100.3507948,
            18.2599096
          ],
          [
            100.350827,
            18.2592473
          ],
          [
            100.3508592,
            18.2586564
          ],
          [
            100.3508109,
            18.2583711
          ]
        ]
      }
    },
    {
      "type": "Feature",
      "id": 675096139,
      "properties": {
        "id": 675096139,
        "name": "สายน้ำ",
        "category": "สายน้ำ",
        "highway": null,
        "waterway": "stream",
        "ref": null
      },
      "geometry": {
        "type": "LineString",
        "coordinates": [
          [
            100.365563,
            18.2520744
          ],
          [
            100.3647691,
            18.252212
          ],
          [
            100.3638625,
            18.2520489
          ],
          [
            100.3634709,
            18.2520948
          ],
          [
            100.3631329,
            18.2522272
          ],
          [
            100.3627896,
            18.2523444
          ],
          [
            100.3622854,
            18.2524106
          ],
          [
            100.3617328,
            18.252375
          ],
          [
            100.3612179,
            18.2523393
          ],
          [
            100.3608423,
            18.2523954
          ],
          [
            100.3604668,
            18.2525227
          ],
          [
            100.3602683,
            18.2526654
          ],
          [
            100.3602576,
            18.2528691
          ],
          [
            100.3602496,
            18.2531493
          ]
        ]
      }
    },
    {
      "type": "Feature",
      "id": 675096140,
      "properties": {
        "id": 675096140,
        "name": "สายน้ำ",
        "category": "สายน้ำ",
        "highway": null,
        "waterway": "stream",
        "ref": null
      },
      "geometry": {
        "type": "LineString",
        "coordinates": [
          [
            100.3661853,
            18.2657934
          ],
          [
            100.3659439,
            18.2657628
          ],
          [
            100.3656328,
            18.2658036
          ],
          [
            100.3652304,
            18.265936
          ],
          [
            100.3650212,
            18.2661041
          ],
          [
            100.3647691,
            18.2663334
          ],
          [
            100.3645974,
            18.2664556
          ],
          [
            100.3643775,
            18.2664353
          ],
          [
            100.3642809,
            18.266369
          ],
          [
            100.3641307,
            18.2662213
          ],
          [
            100.363943,
            18.2658647
          ],
          [
            100.3637606,
            18.265447
          ],
          [
            100.3633904,
            18.2649121
          ],
          [
            100.3629881,
            18.2646065
          ],
          [
            100.3626555,
            18.2644536
          ],
          [
            100.3622264,
            18.2644078
          ],
          [
            100.3618991,
            18.2644078
          ],
          [
            100.3617811,
            18.2643467
          ],
          [
            100.3616095,
            18.2641429
          ],
          [
            100.3615129,
            18.2636182
          ],
          [
            100.3615236,
            18.2629101
          ],
          [
            100.361588,
            18.2625077
          ],
          [
            100.3618669,
            18.261932
          ],
          [
            100.3620332,
            18.2614837
          ],
          [
            100.3619313,
            18.261229
          ],
          [
            100.3617436,
            18.2611679
          ],
          [
            100.3615719,
            18.2611984
          ],
          [
            100.3613198,
            18.2613869
          ],
          [
            100.361191,
            18.2616416
          ],
          [
            100.3609174,
            18.261825
          ],
          [
            100.3605634,
            18.2619473
          ],
          [
            100.3602201,
            18.2619218
          ],
          [
            100.3600484,
            18.2617843
          ],
          [
            100.3600162,
            18.2614532
          ],
          [
            100.3601342,
            18.2612137
          ],
          [
            100.3603488,
            18.2609335
          ],
          [
            100.3606278,
            18.2607298
          ],
          [
            100.3609657,
            18.2605209
          ],
          [
            100.3611964,
            18.2601898
          ],
          [
            100.3613788,
            18.2596345
          ],
          [
            100.3614432,
            18.2588092
          ],
          [
            100.3613627,
            18.2582641
          ],
          [
            100.3612608,
            18.2577547
          ],
          [
            100.361065,
            18.2574439
          ]
        ]
      }
    },
    {
      "type": "Feature",
      "id": 1000694082,
      "properties": {
        "id": 1000694082,
        "name": "สายน้ำ",
        "category": "สายน้ำ",
        "highway": null,
        "waterway": "dam",
        "ref": null
      },
      "geometry": {
        "type": "LineString",
        "coordinates": [
          [
            100.3445882,
            18.2578956
          ],
          [
            100.3440007,
            18.2568604
          ],
          [
            100.3436468,
            18.2560806
          ],
          [
            100.3435264,
            18.2553614
          ],
          [
            100.343576,
            18.2551328
          ],
          [
            100.3436963,
            18.2549513
          ],
          [
            100.3435123,
            18.2547295
          ],
          [
            100.3439775,
            18.254459
          ],
          [
            100.3442341,
            18.2545605
          ],
          [
            100.344277,
            18.2546726
          ],
          [
            100.3443065,
            18.2548432
          ],
          [
            100.3442529,
            18.2550114
          ],
          [
            100.3443146,
            18.2552126
          ],
          [
            100.3444621,
            18.2557271
          ],
          [
            100.3446552,
            18.2566772
          ],
          [
            100.3448081,
            18.2572096
          ],
          [
            100.344902,
            18.2573268
          ],
          [
            100.3451729,
            18.2574134
          ],
          [
            100.3448855,
            18.2577275
          ],
          [
            100.3448643,
            18.2578821
          ],
          [
            100.3445882,
            18.2578956
          ]
        ]
      }
    },
    {
      "type": "Feature",
      "id": 1000694083,
      "properties": {
        "id": 1000694083,
        "name": "สายน้ำ",
        "category": "สายน้ำ",
        "highway": null,
        "waterway": "dam",
        "ref": null
      },
      "geometry": {
        "type": "LineString",
        "coordinates": [
          [
            100.3432406,
            18.2552056
          ],
          [
            100.3436105,
            18.2549546
          ],
          [
            100.343586,
            18.25491
          ],
          [
            100.3435618,
            18.2548658
          ],
          [
            100.3431796,
            18.2551438
          ],
          [
            100.3432406,
            18.2552056
          ]
        ]
      }
    },
    {
      "type": "Feature",
      "id": 1000694085,
      "properties": {
        "id": 1000694085,
        "name": "สายน้ำ",
        "category": "สายน้ำ",
        "highway": null,
        "waterway": "ditch",
        "ref": null
      },
      "geometry": {
        "type": "LineString",
        "coordinates": [
          [
            100.340368,
            18.2637423
          ],
          [
            100.3403663,
            18.2637688
          ],
          [
            100.3402281,
            18.2639849
          ],
          [
            100.3401102,
            18.2640892
          ],
          [
            100.3400167,
            18.2641625
          ],
          [
            100.3398662,
            18.2642204
          ],
          [
            100.3396752,
            18.2642398
          ],
          [
            100.338301,
            18.2648459
          ],
          [
            100.3375571,
            18.2651316
          ],
          [
            100.337366,
            18.265174
          ],
          [
            100.336435,
            18.2652898
          ],
          [
            100.3361097,
            18.2653092
          ],
          [
            100.3358821,
            18.2652783
          ],
          [
            100.335317,
            18.2651123
          ],
          [
            100.3346177,
            18.2649578
          ],
          [
            100.3342844,
            18.2649269
          ],
          [
            100.3341421,
            18.2649424
          ]
        ]
      }
    },
    {
      "type": "Feature",
      "id": 1000694086,
      "properties": {
        "id": 1000694086,
        "name": "สายน้ำ",
        "category": "สายน้ำ",
        "highway": null,
        "waterway": "ditch",
        "ref": null
      },
      "geometry": {
        "type": "LineString",
        "coordinates": [
          [
            100.3403738,
            18.2636515
          ],
          [
            100.340368,
            18.2637423
          ]
        ]
      }
    },
    {
      "type": "Feature",
      "id": 1212774538,
      "properties": {
        "id": 1212774538,
        "name": "สายน้ำ",
        "category": "สายน้ำ",
        "highway": null,
        "waterway": "drain",
        "ref": null
      },
      "geometry": {
        "type": "LineString",
        "coordinates": [
          [
            100.3019952,
            18.2633186
          ],
          [
            100.3020024,
            18.2626869
          ],
          [
            100.302026,
            18.2626281
          ],
          [
            100.3020743,
            18.2625762
          ],
          [
            100.3035441,
            18.2618132
          ],
          [
            100.3035986,
            18.2617753
          ],
          [
            100.3038744,
            18.2614378
          ],
          [
            100.3039381,
            18.2613529
          ],
          [
            100.3039699,
            18.2612871
          ],
          [
            100.303981,
            18.2612213
          ],
          [
            100.3041005,
            18.2600955
          ]
        ]
      }
    },
    {
      "type": "Feature",
      "id": 1212774539,
      "properties": {
        "id": 1212774539,
        "name": "สายน้ำ",
        "category": "สายน้ำ",
        "highway": null,
        "waterway": "drain",
        "ref": null
      },
      "geometry": {
        "type": "LineString",
        "coordinates": [
          [
            100.3019551,
            18.2663653
          ],
          [
            100.3019507,
            18.2662956
          ]
        ]
      }
    },
    {
      "type": "Feature",
      "id": 1212774540,
      "properties": {
        "id": 1212774540,
        "name": "สายน้ำ",
        "category": "สายน้ำ",
        "highway": null,
        "waterway": "drain",
        "ref": null
      },
      "geometry": {
        "type": "LineString",
        "coordinates": [
          [
            100.3019507,
            18.2662956
          ],
          [
            100.3019418,
            18.266134
          ],
          [
            100.3019409,
            18.2660233
          ],
          [
            100.3019516,
            18.2659148
          ],
          [
            100.3021378,
            18.2652029
          ],
          [
            100.3021714,
            18.2651034
          ],
          [
            100.302172,
            18.2650066
          ],
          [
            100.3021194,
            18.2643893
          ],
          [
            100.3020618,
            18.2642416
          ],
          [
            100.3019242,
            18.2640696
          ],
          [
            100.3018953,
            18.2639848
          ],
          [
            100.3018883,
            18.2638935
          ],
          [
            100.3019649,
            18.2634754
          ]
        ]
      }
    },
    {
      "type": "Feature",
      "id": 1212774541,
      "properties": {
        "id": 1212774541,
        "name": "สายน้ำ",
        "category": "สายน้ำ",
        "highway": null,
        "waterway": "drain",
        "ref": null
      },
      "geometry": {
        "type": "LineString",
        "coordinates": [
          [
            100.3019649,
            18.2634754
          ],
          [
            100.3019952,
            18.2633186
          ]
        ]
      }
    },
    {
      "type": "Feature",
      "id": 1212776404,
      "properties": {
        "id": 1212776404,
        "name": "สายน้ำ",
        "category": "สายน้ำ",
        "highway": null,
        "waterway": "ditch",
        "ref": null
      },
      "geometry": {
        "type": "LineString",
        "coordinates": [
          [
            100.343586,
            18.25491
          ],
          [
            100.3431145,
            18.2552596
          ],
          [
            100.3428422,
            18.2554334
          ],
          [
            100.3425047,
            18.2555955
          ],
          [
            100.3423055,
            18.2555955
          ],
          [
            100.3419478,
            18.2556187
          ],
          [
            100.3414111,
            18.2556766
          ],
          [
            100.3412444,
            18.2557538
          ],
          [
            100.3412322,
            18.2558658
          ],
          [
            100.3412446,
            18.2560612
          ],
          [
            100.3412823,
            18.2564139
          ],
          [
            100.3415278,
            18.2569399
          ],
          [
            100.3418489,
            18.2575318
          ],
          [
            100.3418988,
            18.2577264
          ],
          [
            100.3418615,
            18.2579502
          ],
          [
            100.3416663,
            18.2582611
          ],
          [
            100.3412509,
            18.2587931
          ],
          [
            100.3411124,
            18.259098
          ],
          [
            100.3409235,
            18.2595463
          ],
          [
            100.340741,
            18.2600305
          ],
          [
            100.3406025,
            18.2603653
          ],
          [
            100.3405836,
            18.2605865
          ],
          [
            100.3406997,
            18.2608462
          ],
          [
            100.3407892,
            18.2612371
          ],
          [
            100.3407932,
            18.2616183
          ],
          [
            100.3407932,
            18.2621936
          ],
          [
            100.3407403,
            18.2624214
          ],
          [
            100.3404598,
            18.2628576
          ],
          [
            100.3403622,
            18.2631665
          ],
          [
            100.3403907,
            18.2633865
          ],
          [
            100.3403738,
            18.2636515
          ]
        ]
      }
    }
  ]
}